{"fetched_at":"2026-07-19T17:31:34.517Z","source":"https://celestrak.org/NORAD/elements/gp.php?NAME=HAWK&FORMAT=JSON","constellation":"hawkeye-360","records":[{"OBJECT_NAME":"HAWK-7B","OBJECT_ID":"2023-054R","EPOCH":"2026-07-19T05:01:10.292160","CLASSIFICATION_TYPE":"U","MEAN_MOTION":15.27654842,"ECCENTRICITY":0.00008898,"INCLINATION":97.268,"RA_OF_ASC_NODE":85.0071,"ARG_OF_PERICENTER":7.1924,"MEAN_ANOMALY":352.9328,"EPHEMERIS_TYPE":0,"NORAD_CAT_ID":56193,"ELEMENT_SET_NO":999,"REV_AT_EPOCH":18191,"BSTAR":0.00010764046,"MEAN_MOTION_DOT":0.00002837,"MEAN_MOTION_DDOT":0},{"OBJECT_NAME":"HAWK-7C","OBJECT_ID":"2023-054Y","EPOCH":"2026-07-19T05:00:59.086944","CLASSIFICATION_TYPE":"U","MEAN_MOTION":15.27657234,"ECCENTRICITY":0.00005158,"INCLINATION":97.2656,"RA_OF_ASC_NODE":85.7659,"ARG_OF_PERICENTER":330.7337,"MEAN_ANOMALY":29.3873,"EPHEMERIS_TYPE":0,"NORAD_CAT_ID":56200,"ELEMENT_SET_NO":999,"REV_AT_EPOCH":18191,"BSTAR":0.00010551937,"MEAN_MOTION_DOT":0.0000278,"MEAN_MOTION_DDOT":0},{"OBJECT_NAME":"HAWK-8A","OBJECT_ID":"2024-066B","EPOCH":"2026-07-19T03:54:29.496960","CLASSIFICATION_TYPE":"U","MEAN_MOTION":14.99293361,"ECCENTRICITY":0.00032885,"INCLINATION":45.5973,"RA_OF_ASC_NODE":111.2994,"ARG_OF_PERICENTER":236.1813,"MEAN_ANOMALY":123.8756,"EPHEMERIS_TYPE":0,"NORAD_CAT_ID":59443,"ELEMENT_SET_NO":999,"REV_AT_EPOCH":12463,"BSTAR":0.000050818768,"MEAN_MOTION_DOT":0.00000398,"MEAN_MOTION_DDOT":0},{"OBJECT_NAME":"HAWK-8B","OBJECT_ID":"2024-066D","EPOCH":"2026-07-19T03:55:10.271712","CLASSIFICATION_TYPE":"U","MEAN_MOTION":14.99293455,"ECCENTRICITY":0.00034017,"INCLINATION":45.6182,"RA_OF_ASC_NODE":113.2843,"ARG_OF_PERICENTER":238.9589,"MEAN_ANOMALY":121.0959,"EPHEMERIS_TYPE":0,"NORAD_CAT_ID":59445,"ELEMENT_SET_NO":999,"REV_AT_EPOCH":12462,"BSTAR":0.000043935139,"MEAN_MOTION_DOT":0.00000313,"MEAN_MOTION_DDOT":0},{"OBJECT_NAME":"HAWK-9A","OBJECT_ID":"2024-066E","EPOCH":"2026-07-19T02:52:22.075680","CLASSIFICATION_TYPE":"U","MEAN_MOTION":14.99222043,"ECCENTRICITY":0.00030928,"INCLINATION":45.6099,"RA_OF_ASC_NODE":112.1735,"ARG_OF_PERICENTER":222.6629,"MEAN_ANOMALY":137.4012,"EPHEMERIS_TYPE":0,"NORAD_CAT_ID":59446,"ELEMENT_SET_NO":999,"REV_AT_EPOCH":12462,"BSTAR":0.000068068547,"MEAN_MOTION_DOT":0.00000611,"MEAN_MOTION_DDOT":0},{"OBJECT_NAME":"HAWK-9C","OBJECT_ID":"2024-066G","EPOCH":"2026-07-19T04:28:42.556224","CLASSIFICATION_TYPE":"U","MEAN_MOTION":14.99220661,"ECCENTRICITY":0.0002978,"INCLINATION":45.6069,"RA_OF_ASC_NODE":110.9255,"ARG_OF_PERICENTER":208.7257,"MEAN_ANOMALY":151.3461,"EPHEMERIS_TYPE":0,"NORAD_CAT_ID":59448,"ELEMENT_SET_NO":999,"REV_AT_EPOCH":12463,"BSTAR":0.00006477751,"MEAN_MOTION_DOT":0.0000057,"MEAN_MOTION_DDOT":0},{"OBJECT_NAME":"HAWK-8C","OBJECT_ID":"2024-066H","EPOCH":"2026-07-19T02:18:26.841600","CLASSIFICATION_TYPE":"U","MEAN_MOTION":14.99295581,"ECCENTRICITY":0.0003007,"INCLINATION":45.6077,"RA_OF_ASC_NODE":112.6459,"ARG_OF_PERICENTER":244.303,"MEAN_ANOMALY":115.7541,"EPHEMERIS_TYPE":0,"NORAD_CAT_ID":59449,"ELEMENT_SET_NO":999,"REV_AT_EPOCH":12461,"BSTAR":0.000061344746,"MEAN_MOTION_DOT":0.00000529,"MEAN_MOTION_DDOT":0},{"OBJECT_NAME":"HAWK-9B","OBJECT_ID":"2024-066J","EPOCH":"2026-07-19T02:52:49.106784","CLASSIFICATION_TYPE":"U","MEAN_MOTION":14.99217135,"ECCENTRICITY":0.0003259,"INCLINATION":45.6125,"RA_OF_ASC_NODE":113.109,"ARG_OF_PERICENTER":204.4287,"MEAN_ANOMALY":155.644,"EPHEMERIS_TYPE":0,"NORAD_CAT_ID":59450,"ELEMENT_SET_NO":999,"REV_AT_EPOCH":12462,"BSTAR":0.00006917892,"MEAN_MOTION_DOT":0.00000624,"MEAN_MOTION_DDOT":0},{"OBJECT_NAME":"HAWK-10A","OBJECT_ID":"2024-149CA","EPOCH":"2026-07-19T04:42:34.545888","CLASSIFICATION_TYPE":"U","MEAN_MOTION":14.96595058,"ECCENTRICITY":0.00026911,"INCLINATION":97.6881,"RA_OF_ASC_NODE":275.5577,"ARG_OF_PERICENTER":346.5678,"MEAN_ANOMALY":13.5472,"EPHEMERIS_TYPE":0,"NORAD_CAT_ID":60540,"ELEMENT_SET_NO":999,"REV_AT_EPOCH":10477,"BSTAR":0.000032106448,"MEAN_MOTION_DOT":0.00000308,"MEAN_MOTION_DDOT":0},{"OBJECT_NAME":"HAWK-10B","OBJECT_ID":"2024-149CF","EPOCH":"2026-07-19T04:42:22.947552","CLASSIFICATION_TYPE":"U","MEAN_MOTION":14.96594111,"ECCENTRICITY":0.0004988,"INCLINATION":97.68,"RA_OF_ASC_NODE":274.8801,"ARG_OF_PERICENTER":0.0464,"MEAN_ANOMALY":0.0758,"EPHEMERIS_TYPE":0,"NORAD_CAT_ID":60545,"ELEMENT_SET_NO":999,"REV_AT_EPOCH":10477,"BSTAR":0.000037076129,"MEAN_MOTION_DOT":0.00000365,"MEAN_MOTION_DDOT":0},{"OBJECT_NAME":"HAWK-10C","OBJECT_ID":"2024-149DM","EPOCH":"2026-07-19T04:42:52.551648","CLASSIFICATION_TYPE":"U","MEAN_MOTION":14.96592985,"ECCENTRICITY":0.00023042,"INCLINATION":97.6717,"RA_OF_ASC_NODE":274.1865,"ARG_OF_PERICENTER":329.9543,"MEAN_ANOMALY":30.1546,"EPHEMERIS_TYPE":0,"NORAD_CAT_ID":60575,"ELEMENT_SET_NO":999,"REV_AT_EPOCH":10477,"BSTAR":0.000042836373,"MEAN_MOTION_DOT":0.00000431,"MEAN_MOTION_DDOT":0},{"OBJECT_NAME":"HAWK-11B","OBJECT_ID":"2024-247C","EPOCH":"2026-07-19T03:37:55.809696","CLASSIFICATION_TYPE":"U","MEAN_MOTION":15.30702098,"ECCENTRICITY":0.00024161,"INCLINATION":45.0157,"RA_OF_ASC_NODE":114.4868,"ARG_OF_PERICENTER":49.1127,"MEAN_ANOMALY":310.9967,"EPHEMERIS_TYPE":0,"NORAD_CAT_ID":62379,"ELEMENT_SET_NO":999,"REV_AT_EPOCH":8790,"BSTAR":0.00013346979,"MEAN_MOTION_DOT":0.00003732,"MEAN_MOTION_DDOT":0},{"OBJECT_NAME":"HAWK-11C","OBJECT_ID":"2024-247E","EPOCH":"2026-07-19T03:37:17.438592","CLASSIFICATION_TYPE":"U","MEAN_MOTION":15.30698177,"ECCENTRICITY":0.00033091,"INCLINATION":45.0045,"RA_OF_ASC_NODE":113.8156,"ARG_OF_PERICENTER":33.9421,"MEAN_ANOMALY":326.1674,"EPHEMERIS_TYPE":0,"NORAD_CAT_ID":62381,"ELEMENT_SET_NO":999,"REV_AT_EPOCH":8790,"BSTAR":0.00013309156,"MEAN_MOTION_DOT":0.0000372,"MEAN_MOTION_DDOT":0},{"OBJECT_NAME":"HAWK-11A","OBJECT_ID":"2024-247F","EPOCH":"2026-07-18T22:55:30.035136","CLASSIFICATION_TYPE":"U","MEAN_MOTION":15.30693758,"ECCENTRICITY":0.00027982,"INCLINATION":44.9938,"RA_OF_ASC_NODE":114.2138,"ARG_OF_PERICENTER":31.4699,"MEAN_ANOMALY":328.6352,"EPHEMERIS_TYPE":0,"NORAD_CAT_ID":62382,"ELEMENT_SET_NO":999,"REV_AT_EPOCH":8787,"BSTAR":0.00014403355,"MEAN_MOTION_DOT":0.00004051,"MEAN_MOTION_DDOT":0},{"OBJECT_NAME":"HAWK-12C","OBJECT_ID":"2025-138A","EPOCH":"2026-07-19T00:08:33.228960","CLASSIFICATION_TYPE":"U","MEAN_MOTION":15.18422566,"ECCENTRICITY":0.001498,"INCLINATION":97.4355,"RA_OF_ASC_NODE":201.9144,"ARG_OF_PERICENTER":38.9414,"MEAN_ANOMALY":321.2896,"EPHEMERIS_TYPE":0,"NORAD_CAT_ID":64621,"ELEMENT_SET_NO":999,"REV_AT_EPOCH":5869,"BSTAR":0.00010818597,"MEAN_MOTION_DOT":0.00002164,"MEAN_MOTION_DDOT":0},{"OBJECT_NAME":"HAWK-12B","OBJECT_ID":"2025-138B","EPOCH":"2026-07-19T00:08:48.314400","CLASSIFICATION_TYPE":"U","MEAN_MOTION":15.18421939,"ECCENTRICITY":0.00138219,"INCLINATION":97.4479,"RA_OF_ASC_NODE":202.6144,"ARG_OF_PERICENTER":35.0819,"MEAN_ANOMALY":325.1322,"EPHEMERIS_TYPE":0,"NORAD_CAT_ID":64622,"ELEMENT_SET_NO":999,"REV_AT_EPOCH":5869,"BSTAR":0.00010696601,"MEAN_MOTION_DOT":0.00002138,"MEAN_MOTION_DDOT":0}]}
