HAWK-7B                 
1 56193U 23054R   26200.20914690  .00002837  00000+0  10764-3 0  9999
2 56193  97.2680  85.0071 0000889   7.1924 352.9328 15.27654842181913
HAWK-7C                 
1 56200U 23054Y   26200.20901721  .00002780  00000+0  10552-3 0  9991
2 56200  97.2656  85.7659 0000515 330.7337  29.3873 15.27657234181911
HAWK-8A                 
1 59443U 24066B   26200.16284140  .00000398  00000+0  50819-4 0  9995
2 59443  45.5973 111.2994 0003288 236.1813 123.8756 14.99293361124637
HAWK-8B                 
1 59445U 24066D   26200.16331333  .00000313  00000+0  43935-4 0  9992
2 59445  45.6182 113.2843 0003401 238.9589 121.0959 14.99293455124622
HAWK-9A                 
1 59446U 24066E   26200.11969995  .00000611  00000+0  68069-4 0  9995
2 59446  45.6099 112.1735 0003092 222.6629 137.4012 14.99222043124625
HAWK-9C                 
1 59448U 24066G   26200.18660366  .00000570  00000+0  64778-4 0  9991
2 59448  45.6069 110.9255 0002978 208.7257 151.3461 14.99220661124639
HAWK-8C                 
1 59449U 24066H   26200.09614400  .00000529  00000+0  61345-4 0  9991
2 59449  45.6077 112.6459 0003007 244.3030 115.7541 14.99295581124617
HAWK-9B                 
1 59450U 24066J   26200.12001281  .00000624  00000+0  69179-4 0  9993
2 59450  45.6125 113.1090 0003259 204.4287 155.6440 14.99217135124621
HAWK-10A                
1 60540U 24149CA  26200.19623317  .00000308  00000+0  32106-4 0  9993
2 60540  97.6881 275.5577 0002691 346.5678  13.5472 14.96595058104774
HAWK-10B                
1 60545U 24149CF  26200.19609893  .00000365  00000+0  37076-4 0  9995
2 60545  97.6800 274.8801 0004988   0.0464   0.0758 14.96594111104775
HAWK-10C                
1 60575U 24149DM  26200.19644157  .00000431  00000+0  42836-4 0  9994
2 60575  97.6717 274.1865 0002304 329.9543  30.1546 14.96592985104775
HAWK-11B                
1 62379U 24247C   26200.15134039  .00003732  00000+0  13347-3 0  9997
2 62379  45.0157 114.4868 0002416  49.1127 310.9967 15.30702098 87904
HAWK-11C                
1 62381U 24247E   26200.15089628  .00003720  00000+0  13309-3 0  9998
2 62381  45.0045 113.8156 0003309  33.9421 326.1674 15.30698177 87902
HAWK-11A                
1 62382U 24247F   26199.95520874  .00004051  00000+0  14403-3 0  9991
2 62382  44.9938 114.2138 0002798  31.4699 328.6352 15.30693758 87874
HAWK-12C                
1 64621U 25138A   26200.00594015  .00002164  00000+0  10819-3 0  9996
2 64621  97.4355 201.9144 0014980  38.9414 321.2896 15.18422566 58695
HAWK-12B                
1 64622U 25138B   26200.00611475  .00002138  00000+0  10697-3 0  9992
2 64622  97.4479 202.6144 0013821  35.0819 325.1322 15.18421939 58691
